[{"OBJECT_NAME":"MARAFON-D GVM","OBJECT_ID":"2024-039V","EPOCH":"2026-03-09T22:15:16.896096","MEAN_MOTION":14.45961623,"ECCENTRICITY":0.00149761,"INCLINATION":88.9816,"RA_OF_ASC_NODE":295.8376,"ARG_OF_PERICENTER":319.0552,"MEAN_ANOMALY":40.9527,"EPHEMERIS_TYPE":0,"CLASSIFICATION_TYPE":"U","NORAD_CAT_ID":59072,"ELEMENT_SET_NO":999,"REV_AT_EPOCH":10684,"BSTAR":8.0103078e-5,"MEAN_MOTION_DOT":3.0e-6,"MEAN_MOTION_DDOT":0},{"OBJECT_NAME":"FENGYUN 1C DEB","OBJECT_ID":"1999-025BAZ","EPOCH":"2026-02-28T02:44:34.725120","MEAN_MOTION":14.38997235,"ECCENTRICITY":0.00518676,"INCLINATION":99.6935,"RA_OF_ASC_NODE":22.4487,"ARG_OF_PERICENTER":347.2744,"MEAN_ANOMALY":12.7127,"EPHEMERIS_TYPE":0,"CLASSIFICATION_TYPE":"U","NORAD_CAT_ID":30959,"ELEMENT_SET_NO":999,"REV_AT_EPOCH":61498,"BSTAR":0.0027857452,"MEAN_MOTION_DOT":8.69e-5,"MEAN_MOTION_DDOT":0}]
